GLOBALSTAR M057         
1 25943U 99058A   24353.43644338 -.00000069  00000+0  21524-3 0  9998
2 25943  51.9960 141.1654 0002614  34.3080 325.7938 12.24805365144785
GLOBALSTAR M059         
1 25944U 99058B   24353.24189995 -.00000069  00000+0  21633-3 0  9992
2 25944  52.0041 336.6856 0000347 359.2336  14.1083 11.99973578552323
GLOBALSTAR M056         
1 25945U 99058C   24353.41779559 -.00000126  00000+0 -44830-3 0  9992
2 25945  51.9988 342.8080 0000728 179.1663 347.3060 12.04775403140834
GLOBALSTAR M031         
1 25946U 99058D   24353.18149120 -.00000059  00000+0  31703-3 0  9991
2 25946  51.9956 246.6237 0001468 128.7160 353.6952 12.16025823142524
GLOBALSTAR M034         
1 25962U 99062B   24353.34504865 -.00000057  00000+0  37598-3 0  9999
2 25962  51.9857 121.4695 0014794  63.3719 333.1980 11.79437706117059
GLOBALSTAR M029         
1 25963U 99062C   24353.35889946 -.00000070  00000+0  20657-3 0  9990
2 25963  51.9783 224.5623 0003418 106.4259  65.7803 11.99889084147410
